FLTSATCOM 7 (USA 20)    
1 17181U 86096A   19088.79715278  .00000015  00000-0  00000+0 0  9994
2 17181  14.5946 359.8657 0034697 283.3056 254.9993  0.98666019125833
TDRS 3                  
1 19548U 88091B   19089.91179584 -.00000306  00000-0  00000-0 0  9994
2 19548  14.3635   1.5106 0036626 321.8357 144.0675  1.00273531 98989
FLTSATCOM 8 (USA 46)    
1 20253U 89077A   19090.15644443 -.00000151  00000-0  00000+0 0  9990
2 20253  13.0613   9.1273 0006652 336.1264 243.7349  1.00270694234183
SKYNET 4C               
1 20776U 90079A   19090.06989910  .00000120  00000-0  00000+0 0  9990
2 20776  13.9814   9.8403 0003139   3.9120 233.0032  1.00275001104515
TDRS 5                  
1 21639U 91054B   19089.63051311  .00000077  00000-0  00000-0 0  9991
2 21639  14.6632  14.7914 0025057 348.7338 243.4452  1.00272550101284
TDRS 6                  
1 22314U 93003B   19090.34960469 -.00000299  00000-0  00000+0 0  9997
2 22314  14.2572  17.8446 0006698 349.1172 261.4505  1.00268829 95958
UFO 2 (USA 95)          
1 22787U 93056A   19090.49504767  .00000120  00000-0  00000+0 0  9992
2 22787  11.1299  18.2734 0003821   2.0534  15.2286  1.00267416 92242
USA 99 (MILSTAR-1 1)    
1 22988U 94009A   19090.17490473 -.00000270  00000-0  00000+0 0  9994
2 22988  13.3956  56.2657 0002115 345.8982 170.2555  1.00274363  5227
ASTRA 1D                
1 23331U 94070A   19089.82872998 -.00000277  00000-0  00000+0 0  9998
2 23331   8.4981  44.8949 0004067 327.9307  40.4407  1.00272573 89744
USA 107 (DSP 17)        
1 23435U 94084A   19089.40268008 -.00000310  00000-0  00000+0 0  9991
2 23435  14.4601  16.0232 0001743  47.0809 217.7506  1.00251400  5266
UFO 4 (USA 108)         
1 23467U 95003A   19090.58217263 -.00000031  00000-0  00000+0 0  9996
2 23467   9.9431  23.3228 0004159 356.7186 190.3532  1.00272130 88549
AMSC 1                  
1 23553U 95019A   19089.89381785 -.00000105  00000-0  00000+0 0  9994
2 23553  10.8224  34.4888 0009914 352.1865  16.5587  1.00272161 87743
TDRS 7                  
1 23613U 95035B   19089.84929044 -.00000207  00000-0  00000+0 0  9993
2 23613  14.3810   8.5421 0036935  29.8562 180.0216  1.00274229 86720
USA 113                 
1 23628U 95038A   19089.87120525 -.00000344  00000-0  00000+0 0  9994
2 23628  11.0184  33.3954 0001377 332.9762 238.8591  1.00267324  5180
USA 115 (MILSTAR-1 2)   
1 23712U 95060A   19089.82524056 -.00000206  00000-0  00000-0 0  9993
2 23712  12.9660  23.7118 0002800 348.5978  22.6605  1.00271467  6495
INMARSAT 3-F1           
1 23839U 96020A   19090.50220102 -.00000005  00000-0  00000+0 0  9998
2 23839   5.2182  64.4814 0006162 308.3910  60.9822  1.00270667 84201
ASTRA 1F                
1 23842U 96021A   19090.49818817  .00000123  00000-0  00000+0 0  9997
2 23842   0.0302  20.9375 0004409 351.2669  39.9902  1.00274608 83912
MSAT M1                 
1 23846U 96022A   19090.39594770 -.00000094  00000-0  00000+0 0  9998
2 23846   8.6827  44.3008 0007349 335.2896 203.9093  1.00272304 84012
INMARSAT 3-F2           
1 24307U 96053A   19090.47559406 -.00000260  00000-0  00000+0 0  9996
2 24307   3.9645  74.3831 0007566 295.8412 280.7679  0.99987829 82602
AMC-1 (GE-1)            
1 24315U 96054A   19090.18211543  .00000053  00000-0  00000+0 0  9990
2 24315   2.9526  81.5644 0002764 295.2203 106.1194  1.00272311 82606
INMARSAT 3-F3           
1 24674U 96070A   19090.58675133  .00000024  00000-0  00000+0 0  9997
2 24674   4.7135  68.5784 0005720 305.9025 203.4978  1.00273553 81548
AMC-2 (GE-2)            
1 24713U 97002A   19089.89809241 -.00000224  00000-0  00000-0 0  9992
2 24713   5.5389  62.6506 0005443 314.4011  49.3927  1.00272793 81165
INTELSAT 26 (IS-26)     
1 24732U 97007A   19089.92749090  .00000008  00000-0  00000-0 0  9996
2 24732   8.4167  45.6648 0005448 349.1591 189.2570  1.00273381 46313
USA 130 (DSP 18)        
1 24737U 97008A   19089.55760080  .00000020  00000-0  00000-0 0  9997
2 24737  13.3238  23.6743 0000229   8.6394   3.6829  1.00270526  6505
GALAXY 25 (G-25)        
1 24812U 97026A   19089.89652215 -.00000178  00000-0  00000-0 0  9993
2 24812   0.8986  93.8074 0003535 283.0906  40.7187  1.00271113 79947
INTELSAT 5 (IS-5)       
1 24916U 97046A   19089.52863847  .00000078  00000-0  00000-0 0  9993
2 24916   4.8196  67.8908 0003970 309.8544 223.1746  1.00272300 79198
AMC-3 (GE-3)            
1 24936U 97050A   19090.47498341 -.00000274  00000-0  00000+0 0  9997
2 24936   1.7905  88.8592 0002922 299.5298 259.1549  1.00272480 79024
NSS-5                   
1 24957U 97053A   19090.07342090  .00000094  00000-0  00000+0 0  9997
2 24957   5.0948  66.0773 0004720 323.1611 235.8202  1.00272321 78818
USA 134                 
1 25019U 97065A   19090.56329269 -.00000068  00000-0  00000+0 0  9999
2 25019   9.7014  39.0668 0008119 290.6945 309.7887  1.00275655  5183
ASTRA 1G                
1 25071U 97076A   19090.14182953  .00000054  00000-0  00000+0 0  9994
2 25071   3.6690  75.6002 0003583 295.0519 285.8131  1.00272316 78118
INMARSAT 3-F5           
1 25153U 98006B   19090.47856010 -.00000300  00000-0  00000+0 0  9992
2 25153   3.8886  72.2253 0005121 309.1783 285.4500  1.00272323 77460
UFO 8 (USA 138)         
1 25258U 98016A   19090.49457576 -.00000032  00000-0  00000+0 0  9997
2 25258   8.2151  34.6354 0006433 330.5000 172.9954  1.00273903 77155
THOR III                
1 25358U 98035A   19089.69883571 -.00000056  00000-0  00000+0 0  9993
2 25358   6.5164  55.5405 0002788 322.2641  57.2617  1.00273087 76285
INTELSAT 805 (IS-805)   
1 25371U 98037A   19089.87698132 -.00000046  00000-0  00000+0 0  9996
2 25371   1.4329  91.1049 0003623 296.2160 285.4480  1.00272760 76136
ASTRA 2A                
1 25462U 98050A   19090.08244045 -.00000321  00000-0  00000+0 0  9993
2 25462   0.5961  98.7119 0002560 258.1980 320.9269  1.00274469 75313
JCSAT-4A                
1 25630U 99006A   19089.87314295 -.00000217  00000-0  00000-0 0  9997
2 25630   3.6481  76.6362 0003593 332.3808 243.2796  1.00271628 24182
SKYNET 4E               
1 25639U 99009B   19089.84755760 -.00000040  00000-0  00000+0 0  9995
2 25639  10.6174  23.8852 0003297 323.3690 144.6080  1.00274583 73598
ASIASAT 3S              
1 25657U 99013A   19090.57259806 -.00000249  00000-0  00000+0 0  9993
2 25657   3.8506  75.0145 0004116 300.7506 165.0691  1.00272098 73405
NIMIQ 1                 
1 25740U 99027A   19089.89783069 -.00000215  00000-0  00000-0 0  9991
2 25740   0.0694  93.3836 0003925 280.5227  50.7540  1.00270986 72627
ASTRA 1H                
1 25785U 99033A   19089.90166907 -.00000289  00000-0  00000-0 0  9996
2 25785   5.0775  66.2186 0003023 307.9264  71.3714  1.00271029 24990
ABS-7                   
1 25894U 99046A   19090.52966199 -.00000378  00000-0  00000+0 0  9990
2 25894   0.0737  98.1884 0002344 284.6558 112.5407  1.00269843 70725
ABS-6                   
1 25924U 99053A   19089.87497490 -.00000136  00000-0  00000+0 0  9993
2 25924   0.0235  86.3921 0002934 314.4121 261.1661  1.00271686 71447
TELSTAR 12 (ORION 2)    
1 25949U 99059A   19090.48441375 -.00000077  00000-0  00000+0 0  9990
2 25949   2.3066  87.2946 0002993 284.8582 241.5921  1.00273012 71103
AMC-4 (GE-4)            
1 25954U 99060A   19089.67275219  .00000071  00000-0  00000+0 0  9992
2 25954   0.0185 191.8278 0002625 192.4135 270.8116  1.00270436 71058
UFO 10 (USA 146)        
1 25967U 99063A   19090.28403383 -.00000190  00000-0  00000+0 0  9996
2 25967   7.3749  36.9525 0012441 359.8030 231.1938  1.00294130 70915
GALAXY 11 (G-11)        
1 26038U 99071A   19089.84827081  .00000099  00000-0  00000+0 0  9997
2 26038   0.1875 106.5283 0004646 298.3535 113.3954  1.00022704 70652
USA 148                 
1 26052U 00001A   19089.73948562  .00000031  00000-0  00000+0 0  9990
2 26052   7.7390  49.2029 0003100 334.7511 250.1928  1.00272046  5191
ASIASTAR                
1 26107U 00016A   19090.10822309 -.00000347  00000-0  00000+0 0  9991
2 26107   3.0442  79.6028 0004656 303.0126 309.5306  1.00270270 69728
USA 149 (DSP 20)        
1 26356U 00024A   19090.51332844  .00000096  00000-0  00000+0 0  9991
2 26356  11.1810  29.7202 0000471 259.0883 279.7637  1.00289035  5188
EUTELSAT 80A            
1 26369U 00028A   19090.14444660 -.00000057  00000-0  00000+0 0  9996
2 26369   2.4023  83.6282 0005954 289.6368 297.2556  1.00272019 69051
TDRS 8                  
1 26388U 00034A   19089.93272507 -.00000240  00000-0  00000-0 0  9993
2 26388   8.5418  50.6924 0016356 294.5528 267.5594  1.00279067 68753
INTELSAT 9 (IS-9)       
1 26451U 00043A   19090.03660382 -.00000020  00000-0  00000+0 0  9994
2 26451   4.8083  68.0894 0003570 315.3011 244.0361  1.00272705 68421
BRASILSAT B4            
1 26469U 00046A   19090.48513213 -.00000183  00000-0  00000+0 0  9995
2 26469   3.0212  81.2698 0003910 310.7161 239.2133  1.00271449 68211
ASTRA 2B                
1 26494U 00054A   19090.27783031  .00000105  00000-0  00000+0 0  9999
2 26494   3.5636  76.2462 0005138 298.9328 292.5644  1.00271439 67816
AMC-7 (GE-7)            
1 26495U 00054B   19090.56386002  .00000072  00000-0  00000+0 0  9992
2 26495   0.2946  95.0609 0002884 284.9304 236.6319  1.00273102 67830
NSS-11 (AAP-1)          
1 26554U 00059A   19090.46855154  .00000008  00000-0  00000+0 0  9990
2 26554   0.0196  98.0930 0002618 273.4164 161.6911  1.00265772 67753
USA 153                 
1 26575U 00065A   19090.44973157 -.00000333  00000-0  00000+0 0  9994
2 26575   7.1812  52.3468 0002102 326.2412 106.1165  1.00267333  5199
AMC-6 (GE-6)            
1 26580U 00067A   19090.48601010 -.00000232  00000-0  00000+0 0  9990
2 26580   0.0302  84.0572 0002429 287.6629 268.7998  1.00272041 67561
INTELSAT 12 (IS-12)     
1 26590U 00068A   19090.50220102 -.00000001  00000-0  00000+0 0  9998
2 26590   1.9033  88.6109 0002349 275.5134  69.4829  1.00272390 67383
